[{"OBJECT_NAME":"STARLINK-5074","OBJECT_ID":"2023-014AZ","EPOCH":"2026-03-09T09:06:34.770240","MEAN_MOTION":14.98327265,"ECCENTRICITY":0.00027793,"INCLINATION":70.0006,"RA_OF_ASC_NODE":65.0681,"ARG_OF_PERICENTER":261.6292,"MEAN_ANOMALY":98.4552,"EPHEMERIS_TYPE":0,"CLASSIFICATION_TYPE":"U","NORAD_CAT_ID":55438,"ELEMENT_SET_NO":999,"REV_AT_EPOCH":17201,"BSTAR":1.04542e-5,"MEAN_MOTION_DOT":3.2e-7,"MEAN_MOTION_DDOT":0},{"OBJECT_NAME":"SITRO-AIS 15","OBJECT_ID":"2024-199D","EPOCH":"2026-03-09T21:41:54.706560","MEAN_MOTION":14.9706426,"ECCENTRICITY":0.00074523,"INCLINATION":97.3312,"RA_OF_ASC_NODE":274.4424,"ARG_OF_PERICENTER":51.6231,"MEAN_ANOMALY":308.566,"EPHEMERIS_TYPE":0,"CLASSIFICATION_TYPE":"U","NORAD_CAT_ID":61738,"ELEMENT_SET_NO":999,"REV_AT_EPOCH":11696,"BSTAR":0.0003624053,"MEAN_MOTION_DOT":4.126e-5,"MEAN_MOTION_DDOT":0}]
